{
    "links": {
        "self": "http://www.neowsapp.com/rest/v1/neo/3655364?api_key=iIulBulltgU6a56xZRHN4H3l9WmuAYTsLGpBGhQ2"
    },
    "id": "3655364",
    "neo_reference_id": "3655364",
    "name": "(2013 YE)",
    "designation": "2013 YE",
    "nasa_jpl_url": "http://ssd.jpl.nasa.gov/sbdb.cgi?sstr=3655364",
    "absolute_magnitude_h": 22.4,
    "estimated_diameter": {
        "kilometers": {
            "estimated_diameter_min": 0.0880146521,
            "estimated_diameter_max": 0.1968067451
        },
        "meters": {
            "estimated_diameter_min": 88.0146520901,
            "estimated_diameter_max": 196.8067450894
        },
        "miles": {
            "estimated_diameter_min": 0.0546897524,
            "estimated_diameter_max": 0.122290004
        },
        "feet": {
            "estimated_diameter_min": 288.7619911632,
            "estimated_diameter_max": 645.6914415591
        }
    },
    "is_potentially_hazardous_asteroid": false,
    "close_approach_data": [
        {
            "close_approach_date": "2013-12-25",
            "close_approach_date_full": "2013-Dec-25 19:40",
            "epoch_date_close_approach": 1388000400000,
            "relative_velocity": {
                "kilometers_per_second": "16.4197262623",
                "kilometers_per_hour": "59111.0145443686",
                "miles_per_hour": "36729.2856761939"
            },
            "miss_distance": {
                "astronomical": "0.2515787971",
                "lunar": "97.8641520719",
                "kilometers": "37635652.183322177",
                "miles": "23385709.8569409626"
            },
            "orbiting_body": "Earth"
        }
    ],
    "orbital_data": {
        "orbit_id": "10",
        "orbit_determination_date": "2017-04-06 08:43:15",
        "first_observation_date": "2013-12-23",
        "last_observation_date": "2014-01-11",
        "data_arc_in_days": 19,
        "observations_used": 33,
        "orbit_uncertainty": "7",
        "minimum_orbit_intersection": ".21803",
        "jupiter_tisserand_invariant": "3.298",
        "epoch_osculation": "2459000.5",
        "eccentricity": ".4882054210961712",
        "semi_major_axis": "2.260627095457068",
        "inclination": "30.05147529564552",
        "ascending_node_longitude": "86.26662238133879",
        "orbital_period": "1241.485981165031",
        "perihelion_distance": "1.156976692378036",
        "perihelion_argument": "31.12117650037431",
        "aphelion_distance": "3.364277498536101",
        "perihelion_time": "2459167.839942502494",
        "mean_anomaly": "311.4755863418084",
        "mean_motion": ".2899750826522987",
        "equinox": "J2000",
        "orbit_class": {
            "orbit_class_type": "AMO",
            "orbit_class_description": "Near-Earth asteroid orbits similar to that of 1221 Amor",
            "orbit_class_range": "1.017 AU < q (perihelion) < 1.3 AU"
        }
    },
    "is_sentry_object": false
}